[{"OBJECT_NAME":"STARLINK-33762","OBJECT_ID":"2025-069K","EPOCH":"2026-03-09T10:15:46.511424","MEAN_MOTION":15.30174607,"ECCENTRICITY":0.00012412,"INCLINATION":53.1573,"RA_OF_ASC_NODE":143.7692,"ARG_OF_PERICENTER":65.4547,"MEAN_ANOMALY":294.6583,"EPHEMERIS_TYPE":0,"CLASSIFICATION_TYPE":"U","NORAD_CAT_ID":63442,"ELEMENT_SET_NO":999,"REV_AT_EPOCH":5336,"BSTAR":0.00039407698,"MEAN_MOTION_DOT":0.00011321,"MEAN_MOTION_DDOT":0},{"OBJECT_NAME":"SCS-01 D","OBJECT_ID":"2025-100D","EPOCH":"2026-03-09T18:08:45.040704","MEAN_MOTION":15.31902149,"ECCENTRICITY":0.00063457,"INCLINATION":97.373,"RA_OF_ASC_NODE":145.4097,"ARG_OF_PERICENTER":266.2302,"MEAN_ANOMALY":93.8214,"EPHEMERIS_TYPE":0,"CLASSIFICATION_TYPE":"U","NORAD_CAT_ID":63985,"ELEMENT_SET_NO":999,"REV_AT_EPOCH":4562,"BSTAR":0.0010528181,"MEAN_MOTION_DOT":0.00032471,"MEAN_MOTION_DDOT":0}]
